{
  "type": "FeatureCollection",
  "features": [
    {
      "type": "Feature",
      "properties": {
        "norad_id": 35108,
        "name": "FENGYUN 1C DEB",
        "group": "fengyun-1c-debris",
        "lat": 26.31541492566943,
        "lon": -28.869060066529762,
        "alt_km": 810.9052158006498,
        "timestamp": "2025-12-05T16:54:14.934212+00:00",
        "meta_object_name": "FENGYUN 1C DEB",
        "meta_object_id": "1999-025DKL",
        "meta_epoch": "2025-11-17T16:56:54.235392",
        "meta_mean_motion": 14.06875481,
        "meta_eccentricity": 0.01346692,
        "meta_inclination": 98.7997,
        "meta_ra_of_asc_node": 318.0085,
        "meta_arg_of_pericenter": 131.4741,
        "meta_mean_anomaly": 229.8083,
        "meta_ephemeris_type": 0,
        "meta_classification_type": "U",
        "meta_norad_cat_id": 35108,
        "meta_element_set_no": 999,
        "meta_rev_at_epoch": 88886,
        "meta_bstar": 0.00053903391,
        "meta_mean_motion_dot": 9.33e-06,
        "meta_mean_motion_ddot": 0,
        "tle_line1": "1 35108U 99025DKL 25321.70618328  .00000933  00000+0  53903-3 0  9997",
        "tle_line2": "2 35108  98.7997 318.0085 0134669 131.4741 229.8083 14.06875481888867"
      },
      "geometry": {
        "type": "Point",
        "coordinates": [
          -28.869060066529762,
          26.31541492566943
        ]
      }
    },
    {
      "type": "Feature",
      "properties": {
        "norad_id": 35109,
        "name": "FENGYUN 1C DEB",
        "group": "fengyun-1c-debris",
        "lat": -12.73806133498423,
        "lon": 147.19621561071003,
        "alt_km": 908.5458275697947,
        "timestamp": "2025-12-05T16:54:14.934221+00:00",
        "meta_object_name": "FENGYUN 1C DEB",
        "meta_object_id": "1999-025DKM",
        "meta_epoch": "2025-12-04T06:12:38.801088",
        "meta_mean_motion": 14.20856308,
        "meta_eccentricity": 0.015369,
        "meta_inclination": 98.6153,
        "meta_ra_of_asc_node": 327.7504,
        "meta_arg_of_pericenter": 58.8036,
        "meta_mean_anomaly": 302.8103,
        "meta_ephemeris_type": 0,
        "meta_classification_type": "U",
        "meta_norad_cat_id": 35109,
        "meta_element_set_no": 999,
        "meta_rev_at_epoch": 64039,
        "meta_bstar": 0.00051563,
        "meta_mean_motion_dot": 1.214e-05,
        "meta_mean_motion_ddot": 0,
        "tle_line1": "1 35109U 99025DKM 25338.25878242  .00001214  00000+0  51563-3 0  9992",
        "tle_line2": "2 35109  98.6153 327.7504 0153690  58.8036 302.8103 14.20856308640390"
      },
      "geometry": {
        "type": "Point",
        "coordinates": [
          147.19621561071003,
          -12.73806133498423
        ]
      }
    },
    {
      "type": "Feature",
      "properties": {
        "norad_id": 35111,
        "name": "FENGYUN 1C DEB",
        "group": "fengyun-1c-debris",
        "lat": -63.892992475403204,
        "lon": 77.88851254631273,
        "alt_km": 854.1215305179821,
        "timestamp": "2025-12-05T16:54:14.934230+00:00",
        "meta_object_name": "FENGYUN 1C DEB",
        "meta_object_id": "1999-025DKP",
        "meta_epoch": "2025-12-04T10:34:47.540928",
        "meta_mean_motion": 14.10947082,
        "meta_eccentricity": 0.0021503,
        "meta_inclination": 99.4671,
        "meta_ra_of_asc_node": 56.651,
        "meta_arg_of_pericenter": 243.8937,
        "meta_mean_anomaly": 116.002,
        "meta_ephemeris_type": 0,
        "meta_classification_type": "U",
        "meta_norad_cat_id": 35111,
        "meta_element_set_no": 999,
        "meta_rev_at_epoch": 64027,
        "meta_bstar": 0.00084394,
        "meta_mean_motion_dot": 1.469e-05,
        "meta_mean_motion_ddot": 0,
        "tle_line1": "1 35111U 99025DKP 25338.44082802  .00001469  00000+0  84394-3 0  9995",
        "tle_line2": "2 35111  99.4671  56.6510 0021503 243.8937 116.0020 14.10947082640274"
      },
      "geometry": {
        "type": "Point",
        "coordinates": [
          77.88851254631273,
          -63.892992475403204
        ]
      }
    },
    {
      "type": "Feature",
      "properties": {
        "norad_id": 35116,
        "name": "FENGYUN 1C DEB",
        "group": "fengyun-1c-debris",
        "lat": -3.4251386393188556,
        "lon": -154.75910023378188,
        "alt_km": 829.0447794939064,
        "timestamp": "2025-12-05T16:54:14.934239+00:00",
        "meta_object_name": "FENGYUN 1C DEB",
        "meta_object_id": "1999-025DKU",
        "meta_epoch": "2025-11-29T08:23:15.339840",
        "meta_mean_motion": 14.24983182,
        "meta_eccentricity": 0.00599996,
        "meta_inclination": 98.6639,
        "meta_ra_of_asc_node": 19.4914,
        "meta_arg_of_pericenter": 87.929,
        "meta_mean_anomaly": 272.8759,
        "meta_ephemeris_type": 0,
        "meta_classification_type": "U",
        "meta_norad_cat_id": 35116,
        "meta_element_set_no": 999,
        "meta_rev_at_epoch": 59769,
        "meta_bstar": 0.0010519384,
        "meta_mean_motion_dot": 2.465e-05,
        "meta_mean_motion_ddot": 0,
        "tle_line1": "1 35116U 99025DKU 25333.34948310  .00002465  00000+0  10519-2 0  9993",
        "tle_line2": "2 35116  98.6639  19.4914 0059999  87.9290 272.8759 14.24983182597691"
      },
      "geometry": {
        "type": "Point",
        "coordinates": [
          -154.75910023378188,
          -3.4251386393188556
        ]
      }
    },
    {
      "type": "Feature",
      "properties": {
        "norad_id": 35121,
        "name": "FENGYUN 1C DEB",
        "group": "fengyun-1c-debris",
        "lat": 21.853935699857487,
        "lon": 26.903797707199434,
        "alt_km": 790.1694919155907,
        "timestamp": "2025-12-05T16:54:14.934248+00:00",
        "meta_object_name": "FENGYUN 1C DEB",
        "meta_object_id": "1999-025DKZ",
        "meta_epoch": "2025-11-23T20:23:41.984736",
        "meta_mean_motion": 14.04733583,
        "meta_eccentricity": 0.0157971,
        "meta_inclination": 98.3025,
        "meta_ra_of_asc_node": 192.694,
        "meta_arg_of_pericenter": 150.2058,
        "meta_mean_anomaly": 210.8223,
        "meta_ephemeris_type": 0,
        "meta_classification_type": "U",
        "meta_norad_cat_id": 35121,
        "meta_element_set_no": 999,
        "meta_rev_at_epoch": 60826,
        "meta_bstar": 0.00039097454,
        "meta_mean_motion_dot": 6.63e-06,
        "meta_mean_motion_ddot": 0,
        "tle_line1": "1 35121U 99025DKZ 25327.84979149  .00000663  00000+0  39097-3 0  9992",
        "tle_line2": "2 35121  98.3025 192.6940 0157971 150.2058 210.8223 14.04733583608261"
      },
      "geometry": {
        "type": "Point",
        "coordinates": [
          26.903797707199434,
          21.853935699857487
        ]
      }
    },
    {
      "type": "Feature",
      "properties": {
        "norad_id": 35122,
        "name": "FENGYUN 1C DEB",
        "group": "fengyun-1c-debris",
        "lat": -20.541418802244543,
        "lon": 175.04661208890934,
        "alt_km": 833.9925543989239,
        "timestamp": "2025-12-05T16:54:14.934257+00:00",
        "meta_object_name": "FENGYUN 1C DEB",
        "meta_object_id": "1999-025DLA",
        "meta_epoch": "2025-12-02T08:08:45.964032",
        "meta_mean_motion": 14.14105652,
        "meta_eccentricity": 0.00248418,
        "meta_inclination": 98.6728,
        "meta_ra_of_asc_node": 355.0598,
        "meta_arg_of_pericenter": 187.1016,
        "meta_mean_anomaly": 172.9809,
        "meta_ephemeris_type": 0,
        "meta_classification_type": "U",
        "meta_norad_cat_id": 35122,
        "meta_element_set_no": 999,
        "meta_rev_at_epoch": 63720,
        "meta_bstar": 0.00038355211,
        "meta_mean_motion_dot": 6.9e-06,
        "meta_mean_motion_ddot": 0,
        "tle_line1": "1 35122U 99025DLA 25336.33942088  .00000690  00000+0  38355-3 0  9995",
        "tle_line2": "2 35122  98.6728 355.0598 0024841 187.1016 172.9809 14.14105652637206"
      },
      "geometry": {
        "type": "Point",
        "coordinates": [
          175.04661208890934,
          -20.541418802244543
        ]
      }
    },
    {
      "type": "Feature",
      "properties": {
        "norad_id": 35123,
        "name": "FENGYUN 1C DEB",
        "group": "fengyun-1c-debris",
        "lat": 76.39109454995581,
        "lon": 23.708767251533533,
        "alt_km": 768.3543954222423,
        "timestamp": "2025-12-05T16:54:14.934266+00:00",
        "meta_object_name": "FENGYUN 1C DEB",
        "meta_object_id": "1999-025DLB",
        "meta_epoch": "2025-12-01T23:04:25.814496",
        "meta_mean_motion": 14.24171122,
        "meta_eccentricity": 0.00496834,
        "meta_inclination": 99.1234,
        "meta_ra_of_asc_node": 158.2362,
        "meta_arg_of_pericenter": 106.8047,
        "meta_mean_anomaly": 253.8589,
        "meta_ephemeris_type": 0,
        "meta_classification_type": "U",
        "meta_norad_cat_id": 35123,
        "meta_element_set_no": 999,
        "meta_rev_at_epoch": 60920,
        "meta_bstar": 0.00063028249,
        "meta_mean_motion_dot": 1.423e-05,
        "meta_mean_motion_ddot": 0,
        "tle_line1": "1 35123U 99025DLB 25335.96140989  .00001423  00000+0  63028-3 0  9994",
        "tle_line2": "2 35123  99.1234 158.2362 0049683 106.8047 253.8589 14.24171122609209"
      },
      "geometry": {
        "type": "Point",
        "coordinates": [
          23.708767251533533,
          76.39109454995581
        ]
      }
    }
  ]
}